[{"OBJECT_NAME":"STARLINK-3681","OBJECT_ID":"2022-025N","EPOCH":"2026-03-09T04:43:49.304352","MEAN_MOTION":15.29349023,"ECCENTRICITY":0.00015422,"INCLINATION":53.1573,"RA_OF_ASC_NODE":26.5377,"ARG_OF_PERICENTER":77.2671,"MEAN_ANOMALY":282.8502,"EPHEMERIS_TYPE":0,"CLASSIFICATION_TYPE":"U","NORAD_CAT_ID":51968,"ELEMENT_SET_NO":999,"REV_AT_EPOCH":22094,"BSTAR":2.5123415e-5,"MEAN_MOTION_DOT":3.69e-6,"MEAN_MOTION_DDOT":0},{"OBJECT_NAME":"LYNK TOWER 6","OBJECT_ID":"2024-043AB","EPOCH":"2026-03-09T21:28:38.303328","MEAN_MOTION":15.29548678,"ECCENTRICITY":0.00097492,"INCLINATION":97.5426,"RA_OF_ASC_NODE":204.1954,"ARG_OF_PERICENTER":232.0253,"MEAN_ANOMALY":128.0107,"EPHEMERIS_TYPE":0,"CLASSIFICATION_TYPE":"U","NORAD_CAT_ID":59123,"ELEMENT_SET_NO":999,"REV_AT_EPOCH":11184,"BSTAR":0.00040142146,"MEAN_MOTION_DOT":0.0001144,"MEAN_MOTION_DDOT":0}]
